NORAD_CAT_ID,OBJECT_NAME,OBJECT_TYPE,EPOCH,MEAN_MOTION,ECCENTRICITY,INCLINATION,RA_OF_ASC_NODE,ARG_OF_PERICENTER,MEAN_ANOMALY,BSTAR,MEAN_MOTION_DOT,MEAN_MOTION_DDOT,TLE_LINE0,TLE_LINE1,TLE_LINE2,SEMIMAJOR_AXIS,PERIOD,APOGEE,PERIGEE,DECAYED
51759.0,STARLINK-3456,PAYLOAD,2022-08-22 22:00:00,15.08841769,0.0001349,53.2191,1.5763,74.3783,222.6589,-0.00061251,-0.00010023,0.0,0 STARLINK-3456,1 51759U 22016AX  22234.91667824 -.00010023  00000-0 -61251-3 0  9990,2 51759  53.2191   1.5763 0001349  74.3783 222.6589 15.08841769  1308,6917.875,95.437,540.673,538.807,0.0
51759.0,STARLINK-3456,PAYLOAD,2022-08-23 06:00:00,15.08814749,0.000132,53.2191,0.0785,85.5037,223.1324,0.0030254,0.00048157,0.0,0 STARLINK-3456,1 51759U 22016AX  22235.25001157  .00048157  00000-0  30254-2 0  9994,2 51759  53.2191   0.0785 0001320  85.5037 223.1324 15.08814749 29425,6917.958000000001,95.439,540.736,538.909,0.0
51759.0,STARLINK-3456,PAYLOAD,2022-08-23 14:00:01,15.08848122,0.0001371,53.2191,358.5838,78.4438,241.7761,-0.0011630999999999,-0.00018755,0.0,0 STARLINK-3456,1 51759U 22016AX  22235.58334491 -.00018755  00000-0 -11631-2 0  9991,2 51759  53.2191 358.5838 0001371  78.4438 241.7761 15.08848122  1307,6917.856,95.437,540.669,538.7719999999998,0.0
51759.0,STARLINK-3456,PAYLOAD,2022-08-23 22:00:01,15.08854811,0.0001322,53.2188,357.0874,74.2524,257.6219,-0.0011799,-0.00019024,0.0,0 STARLINK-3456,1 51759U 22016AX  22235.91668981 -.00019024  00000-0 -11799-2 0  9997,2 51759  53.2188 357.0874 0001322  74.2524 257.6219 15.08854811 29523,6917.835,95.437,540.615,538.786,0.0
51759.0,STARLINK-3456,PAYLOAD,2022-08-24 14:00:01,15.08856895,0.0001386999999999,53.2191,354.0949,76.8315,278.1884,-0.0010883,-0.00017574,0.0,0 STARLINK-3456,1 51759U 22016AX  22236.58334491 -.00017574  00000-0 -10883-2 0  9998,2 51759  53.2191 354.0949 0001387  76.8315 278.1884 15.08856895  1300,6917.829000000002,95.436,540.653,538.734,0.0
51759.0,STARLINK-3456,PAYLOAD,2022-08-24 16:00:00,15.08846807,0.0001411,53.2192,353.7212,75.0498,12.8755,0.00044506,6.804e-05,0.0,0 STARLINK-3456,1 51759U 22016AX  22236.66667824  .00006804  00000-0  44506-3 0  9998,2 51759  53.2192 353.7212 0001411  75.0498  12.8755 15.08846807 29640,6917.86,95.437,540.701,538.748,0.0
51759.0,STARLINK-3456,PAYLOAD,2022-08-24 22:00:00,15.08880029,0.0001368,53.219,352.5984,73.0084,293.6143,-0.0041889,-0.00066412,0.0,0 STARLINK-3456,1 51759U 22016AX  22236.91667824 -.00066412  00000-0 -41889-2 0  9999,2 51759  53.2190 352.5984 0001368  73.0084 293.6143 15.08880029  1308,6917.7580000000025,95.435,540.569,538.677,0.0
51759.0,STARLINK-3456,PAYLOAD,2022-08-25 06:00:02,15.08807579,0.0001435,53.2175,351.1002,76.5069,301.7912,0.0027465999999999,0.00043656,0.0,0 STARLINK-3456,1 51759U 22016AX  22237.25002315  .00043656  00000-0  27466-2 0  9993,2 51759  53.2175 351.1002 0001435  76.5069 301.7912 15.08807579 29734,6917.979,95.44,540.837,538.852,0.0
51759.0,STARLINK-3456,PAYLOAD,2022-08-25 14:00:01,15.0883865,0.0001521999999999,53.2193,349.6061,75.6025,314.2091,-0.0010539999999999,-0.00017023,0.0,0 STARLINK-3456,1 51759U 22016AX  22237.58334491 -.00017023  00000-0 -10540-2 0  9998,2 51759  53.2193 349.6061 0001522  75.6025 314.2091 15.08838650  1304,6917.885,95.438,540.802,538.697,0.0
51759.0,STARLINK-3456,PAYLOAD,2022-08-25 22:00:00,15.08852223,0.0001459,53.2194,348.1095,72.8725,328.5214,-0.0015965,-0.00025615,0.0,0 STARLINK-3456,1 51759U 22016AX  22237.91667824 -.00025615  00000-0 -15965-2 0  9996,2 51759  53.2194 348.1095 0001459  72.8725 328.5214 15.08852223  1308,6917.843000000003,95.437,540.717,538.6990000000002,0.0
51759.0,STARLINK-3456,PAYLOAD,2022-08-26 14:00:01,15.0885104,0.0001518,53.2198,345.1174,73.3487,351.3037,-0.0011225999999999,-0.00018115,0.0,0 STARLINK-3456,1 51759U 22016AX  22238.58335648 -.00018115  00000-0 -11226-2 0  9999,2 51759  53.2198 345.1174 0001518  73.3487 351.3037 15.08851040 29936,6917.847,95.437,540.762,538.6619999999998,0.0
51759.0,STARLINK-3456,PAYLOAD,2022-08-26 22:00:00,15.08864974,0.0001398,53.2199,343.6207,71.1637,5.0254,-0.0041196,-0.00065301,0.0,0 STARLINK-3456,1 51759U 22016AX  22238.91667824 -.00065301  00000-0 -41196-2 0  9998,2 51759  53.2199 343.6207 0001398  71.1637   5.0254 15.08864974  1301,6917.804,95.436,540.636,538.702,0.0
51759.0,STARLINK-3456,PAYLOAD,2022-08-27 14:00:01,15.08835523,0.0001413,53.2202,340.6289,70.8462,28.525,-0.00046656,-7.705e-05,0.0,0 STARLINK-3456,1 51759U 22016AX  22239.58334491 -.00007705  00000-0 -46656-3 0  9994,2 51759  53.2202 340.6289 0001413  70.8462  28.5250 15.08835523  1307,6917.894,95.438,540.737,538.7819999999998,0.0
51759.0,STARLINK-3456,PAYLOAD,2022-08-27 22:00:00,15.0885591,0.0001341999999999,53.2201,339.1321,70.46,40.4952,-0.0017055,-0.0002734,0.0,0 STARLINK-3456,1 51759U 22016AX  22239.91667824 -.00027340  00000-0 -17055-2 0  9997,2 51759  53.2201 339.1321 0001342  70.4600  40.4952 15.08855910  1301,6917.831999999999,95.437,540.625,538.768,0.0
51759.0,STARLINK-3456,PAYLOAD,2022-08-28 06:00:00,15.08839701,0.0001314,53.2204,337.6348,79.7098,42.8494,0.0019091999999999,0.00030227,0.0,0 STARLINK-3456,1 51759U 22016AX  22240.25001157  .00030227  00000-0  19092-2 0  9996,2 51759  53.2204 337.6348 0001314  79.7098  42.8494 15.08839701 30183,6917.880999999999,95.438,540.655,538.837,0.0
51759.0,STARLINK-3456,PAYLOAD,2022-08-28 14:00:01,15.08860987,0.0001409999999999,53.2202,336.1404,69.9822,64.1847,-0.0015343,-0.00024637,0.0,0 STARLINK-3456,1 51759U 22016AX  22240.58334491 -.00024637  00000-0 -15343-2 0  9997,2 51759  53.2202 336.1404 0001410  69.9822  64.1847 15.08860987  1302,6917.816,95.436,540.6569999999998,538.706,0.0
51759.0,STARLINK-3456,PAYLOAD,2022-08-28 22:00:00,15.0885357,0.0001369,53.22,334.6434,71.9984,73.7789,-0.0024031,-0.00038344,0.0,0 STARLINK-3456,1 51759U 22016AX  22240.91667824 -.00038344  00000-0 -24031-2 0  9997,2 51759  53.2200 334.6434 0001369  71.9984  73.7789 15.08853570 30281,6917.839,95.437,540.651,538.757,0.0
51759.0,STARLINK-3456,PAYLOAD,2022-08-29 14:00:01,15.08812742,0.0001311,53.2198,331.6519,69.3621,99.6005,-0.00021387,-3.687e-05,0.0,0 STARLINK-3456,1 51759U 22016AX  22241.58334491 -.00003687  00000-0 -21387-3 0  9996,2 51759  53.2198 331.6519 0001311  69.3621  99.6005 15.08812742  1309,6917.964,95.439,540.736,538.922,0.0
51759.0,STARLINK-3456,PAYLOAD,2022-08-29 16:00:00,15.08794285,0.0001314,53.2198,331.2781,67.3785,194.4823,0.0027481,0.00043664,0.0,0 STARLINK-3456,1 51759U 22016AX  22241.66667824  .00043664  00000-0  27481-2 0  9991,2 51759  53.2198 331.2781 0001314  67.3785 194.4823 15.08794285 30392,6918.02,95.44,540.794,538.976,0.0
51759.0,STARLINK-3456,PAYLOAD,2022-08-29 22:00:00,15.08834225,0.0001226,53.2194,330.1547,72.1031,108.4205,-0.0017892,-0.00028645,0.0,0 STARLINK-3456,1 51759U 22016AX  22241.91667824 -.00028645  00000-0 -17892-2 0  9998,2 51759  53.2194 330.1547 0001226  72.1031 108.4205 15.08834225  1303,6917.898,95.438,540.611,538.915,0.0
51759.0,STARLINK-3456,PAYLOAD,2022-08-30 06:00:00,15.08826126,0.0001227,53.2195,328.6579,80.7281,111.3692,0.001122,0.00017607,0.0,0 STARLINK-3456,1 51759U 22016AX  22242.25001157  .00017607  00000-0  11220-2 0  9990,2 51759  53.2195 328.6579 0001227  80.7281 111.3692 15.08826126 30489,6917.9230000000025,95.438,540.637,538.939,0.0
51759.0,STARLINK-3456,PAYLOAD,2022-08-30 14:00:01,15.08819229,0.0001286999999999,53.2191,327.1634,68.8314,134.8478,0.00096271,0.00015058,0.0,0 STARLINK-3456,1 51759U 22016AX  22242.58334491  .00015058  00000-0  96271-3 0  9994,2 51759  53.2191 327.1634 0001287  68.8314 134.8478 15.08819229  1308,6917.944,95.439,540.6990000000002,538.919,0.0
51759.0,STARLINK-3456,PAYLOAD,2022-08-30 22:00:00,15.08846807,0.0001196,53.2187,325.666,72.1498,143.1027,-0.0018074999999999,-0.00028944,0.0,0 STARLINK-3456,1 51759U 22016AX  22242.91667824 -.00028944  00000-0 -18075-2 0  9995,2 51759  53.2187 325.6660 0001196  72.1498 143.1027 15.08846807  1300,6917.86,95.437,540.552,538.8969999999998,0.0
51759.0,STARLINK-3456,PAYLOAD,2022-08-31 14:00:01,15.08831167,0.00013,53.2185,322.6745,67.6784,170.7701,0.0015394999999999,0.00024292,0.0,0 STARLINK-3456,1 51759U 22016AX  22243.58334491  .00024292  00000-0  15395-2 0  9992,2 51759  53.2185 322.6745 0001300  67.6784 170.7701 15.08831167 30684,6917.906999999997,95.438,540.672,538.873,0.0
51759.0,STARLINK-3456,PAYLOAD,2022-08-31 22:00:00,15.08869976,0.0001248,53.2182,321.1769,71.3735,178.6673,-0.0045266,-0.0007167,0.0,0 STARLINK-3456,1 51759U 22016AX  22243.91667824 -.00071670  00000-0 -45266-2 0  9992,2 51759  53.2182 321.1769 0001248  71.3735 178.6673 15.08869976  1301,6917.7890000000025,95.436,540.5169999999998,538.79,0.0
51759.0,STARLINK-3456,PAYLOAD,2022-09-01 06:00:00,15.08831162,0.0001341999999999,53.2182,319.6801,78.6433,182.993,0.00033564,5.057e-05,0.0,0 STARLINK-3456,1 51759U 22016AX  22244.25001157  .00005057  00000-0  33564-3 0  9994,2 51759  53.2182 319.6801 0001342  78.6433 182.9930 15.08831162 30784,6917.906999999997,95.438,540.701,538.844,0.0
51759.0,STARLINK-3456,PAYLOAD,2022-09-01 14:00:01,15.08815015,0.0001434,53.2182,318.1854,66.8303,206.4596,0.0019593,0.0003101,0.0,0 STARLINK-3456,1 51759U 22016AX  22244.58335648  .00031010  00000-0  19593-2 0  9998,2 51759  53.2182 318.1854 0001434  66.8303 206.4596 15.08815015  1308,6917.956999999999,95.439,540.814,538.83,0.0
51759.0,STARLINK-3456,PAYLOAD,2022-09-01 22:00:00,15.088467199999998,0.0001326,53.2182,316.6876,69.7461,215.06,-0.0012992,-0.00020909,0.0,0 STARLINK-3456,1 51759U 22016AX  22244.91667824 -.00020909  00000-0 -12992-2 0  9992,2 51759  53.2182 316.6876 0001326  69.7461 215.0600 15.08846720  1301,6917.86,95.437,540.6419999999998,538.808,0.0
51759.0,STARLINK-3456,PAYLOAD,2022-09-02 08:00:01,15.08860161,0.0001384,53.2183,314.8173,71.7045,317.5887,-0.0016455999999999,-0.00026396,0.0,0 STARLINK-3456,1 51759U 22016AX  22245.33334491 -.00026396  00000-0 -16456-2 0  9995,2 51759  53.2183 314.8173 0001384  71.7045 317.5887 15.08860161 30950,6917.819,95.436,540.641,538.726,0.0
